QIANFAN-65              
1 62795U 25016L   25316.95668757  .00000173  00000+0  24917-3 0  9999
2 62795  88.9736 106.1375 0015412  72.3947 287.8886 13.50975983 43228
QIANFAN-66              
1 62796U 25016M   25316.91144029  .00000174  00000+0  24999-3 0  9998
2 62796  88.9756 106.1065 0016462  68.2678 292.0224 13.50980008 43260
QIANFAN-67              
1 62797U 25016N   25316.91559137  .00000184  00000+0  26628-3 0  9991
2 62797  88.9746 106.1345 0016527  74.5409 285.7567 13.50972905 43238
QIANFAN-68              
1 62798U 25016P   25316.90733856  .00000177  00000+0  25564-3 0  9993
2 62798  88.9750 106.1795 0016562  72.9285 287.3679 13.50975185 43219
QIANFAN-69              
1 62799U 25016Q   25316.92388840  .00000177  00000+0  25483-3 0  9995
2 62799  88.9729 106.0536 0017330  73.7432 286.5625 13.50972424 43254
QIANFAN-70              
1 62800U 25016R   25316.86607902  .00000183  00000+0  26430-3 0  9994
2 62800  88.9749 106.1917 0016792  65.1473 295.1422 13.50975640 43203
QIANFAN-71              
1 62801U 25016S   25316.86205098  .00000174  00000+0  25013-3 0  9991
2 62801  88.9743 106.1735 0017288  77.1687 283.1394 13.50976150 43209
QIANFAN-72              
1 62802U 25016T   25316.87852642  .00000176  00000+0  25268-3 0  9990
2 62802  88.9734 106.1881 0020613  83.4329 276.9168 13.50976044 43190
